NORAD_CAT_ID,OBJECT_NAME,OBJECT_TYPE,EPOCH,MEAN_MOTION,ECCENTRICITY,INCLINATION,RA_OF_ASC_NODE,ARG_OF_PERICENTER,MEAN_ANOMALY,BSTAR,MEAN_MOTION_DOT,MEAN_MOTION_DDOT,TLE_LINE0,TLE_LINE1,TLE_LINE2,SEMIMAJOR_AXIS,PERIOD,APOGEE,PERIGEE,DECAYED
51855.0,STARLINK-3545,PAYLOAD,2022-09-05 06:00:00,15.08817954,0.0001311,53.2186,11.7212,63.9564,51.9238,0.0037161,0.00059316,0.0,0 STARLINK-3545,1 51855U 22022D   22248.25001157  .00059316  00000-0  37161-2 0  9995,2 51855  53.2186  11.7212 0001311  63.9564  51.9238 15.08817954 29517,6917.948,95.439,540.72,538.906,0.0
51855.0,STARLINK-3545,PAYLOAD,2022-09-05 14:00:01,15.08872357,0.0001472,53.2186,10.2263,59.74800000000001,67.7195,-0.0038703,-0.00061413,0.0,0 STARLINK-3545,1 51855U 22022D   22248.58334491 -.00061413  00000-0 -38703-2 0  9997,2 51855  53.2186  10.2263 0001472  59.7480  67.7195 15.08872357  1307,6917.781,95.436,540.665,538.628,0.0
51855.0,STARLINK-3545,PAYLOAD,2022-09-05 22:00:00,15.08849223,0.0001485,53.2185,8.7299,55.7037,83.3685,-0.004459,-0.00070576,0.0,0 STARLINK-3545,1 51855U 22022D   22248.91667824 -.00070576  00000-0 -44590-2 0  9994,2 51855  53.2185   8.7299 0001485  55.7037  83.3685 15.08849223 29613,6917.852,95.437,540.744,538.69,0.0
51855.0,STARLINK-3545,PAYLOAD,2022-09-06 12:00:00,15.08804866,0.0001443999999999,53.2189,6.1111,62.5017,6.79,-0.0012667,-0.00020371,0.0,0 STARLINK-3545,1 51855U 22022D   22249.50001157 -.00020371  00000-0 -12667-2 0  9999,2 51855  53.2189   6.1111 0001444  62.5017   6.7900 15.08804866 29704,6917.988,95.44,540.852,538.854,0.0
51855.0,STARLINK-3545,PAYLOAD,2022-09-06 14:00:01,15.08796994,0.0001482,53.2188,5.7374,60.4763,101.7042,-0.00042113,-6.976e-05,0.0,0 STARLINK-3545,1 51855U 22022D   22249.58334491 -.00006976  00000-0 -42113-3 0  9992,2 51855  53.2188   5.7374 0001482  60.4763 101.7042 15.08796994  1307,6918.012,95.44,540.9019999999998,538.852,0.0
51855.0,STARLINK-3545,PAYLOAD,2022-09-06 22:00:00,15.08812778,0.0001465999999999,53.2185,4.2409,57.8173,115.8991,-0.00060855,-9.953e-05,0.0,0 STARLINK-3545,1 51855U 22022D   22249.91667824 -.00009953  00000-0 -60855-3 0  9999,2 51855  53.2185   4.2409 0001466  57.8173 115.8991 15.08812778  1302,6917.964,95.439,540.8430000000002,538.814,0.0
51855.0,STARLINK-3545,PAYLOAD,2022-09-07 06:00:00,15.08796983,0.0001343,53.2187,2.7434,66.8246,118.4534,0.0028408,0.0004516,0.0,0 STARLINK-3545,1 51855U 22022D   22250.25001157  .00045160  00000-0  28408-2 0  9994,2 51855  53.2187   2.7434 0001343  66.8246 118.4534 15.08796983 29817,6918.012,95.44,540.806,538.948,0.0
51855.0,STARLINK-3545,PAYLOAD,2022-09-07 14:00:01,15.08822708,0.0001456,53.2187,1.2488,60.1668,136.6725,-0.00018353,-3.206e-05,0.0,0 STARLINK-3545,1 51855U 22022D   22250.58334491 -.00003206  00000-0 -18353-3 0  9996,2 51855  53.2187   1.2488 0001456  60.1668 136.6725 15.08822708  1303,6917.933000000001,95.439,540.805,538.7909999999998,0.0
51855.0,STARLINK-3545,PAYLOAD,2022-09-07 22:00:00,15.08843042,0.0001428,53.2183,359.7521,58.4857,149.9218,-0.0011140999999999,-0.00017976,0.0,0 STARLINK-3545,1 51855U 22022D   22250.91667824 -.00017976  00000-0 -11141-2 0  9998,2 51855  53.2183 359.7521 0001428  58.4857 149.9218 15.08843042 29912,6917.871,95.437,540.724,538.748,0.0
51855.0,STARLINK-3545,PAYLOAD,2022-09-08 14:00:01,15.0884698,0.0001468,53.2184,356.7602,59.5299,172.0708,0.0001139,1.526e-05,0.0,0 STARLINK-3545,1 51855U 22022D   22251.58334491  .00001526  00000-0  11390-3 0  9992,2 51855  53.2184 356.7602 0001468  59.5299 172.0708 15.08846980  1304,6917.859,95.437,540.74,538.7090000000002,0.0
51855.0,STARLINK-3545,PAYLOAD,2022-09-08 22:00:00,15.08888096,0.0001453,53.2181,355.2633,58.7165,184.4893,-0.0031511,-0.00050154,0.0,0 STARLINK-3545,1 51855U 22022D   22251.91667824 -.00050154  00000-0 -31511-2 0  9997,2 51855  53.2181 355.2633 0001453  58.7165 184.4893 15.08888096  1302,6917.733,95.435,540.604,538.5930000000002,0.0
51855.0,STARLINK-3545,PAYLOAD,2022-09-09 00:00:02,15.08885828,0.0001437,53.2182,354.8887,60.9684,275.2095,-0.0036046999999999,-0.00057272,0.0,0 STARLINK-3545,1 51855U 22022D   22252.00002315 -.00057272  00000-0 -36047-2 0  9993,2 51855  53.2182 354.8887 0001437  60.9684 275.2095 15.08885828 30071,6917.74,95.435,540.599,538.611,0.0
51855.0,STARLINK-3545,PAYLOAD,2022-09-09 14:00:01,15.08857184,0.0001578,53.2182,352.2713,59.9175,206.5258,-0.00079637,-0.00012946,0.0,0 STARLINK-3545,1 51855U 22022D   22252.58334491 -.00012946  00000-0 -79637-3 0  9991,2 51855  53.2182 352.2713 0001578  59.9175 206.5258 15.08857184  1306,6917.828,95.436,540.784,538.601,0.0
51855.0,STARLINK-3545,PAYLOAD,2022-09-09 22:00:00,15.08859396,0.0001456,53.218,350.774,56.9081,221.1457,-0.0023086,-0.00036861,0.0,0 STARLINK-3545,1 51855U 22022D   22252.91667824 -.00036861  00000-0 -23086-2 0  9995,2 51855  53.2180 350.7740 0001456  56.9081 221.1457 15.08859396  1306,6917.821,95.436,540.693,538.679,0.0
51855.0,STARLINK-3545,PAYLOAD,2022-09-10 14:00:01,15.08828591,0.0001496999999999,53.2181,347.7824,53.7272,247.5423,0.0002259,3.308e-05,0.0,0 STARLINK-3545,1 51855U 22022D   22253.58334491  .00003308  00000-0  22590-3 0  9998,2 51855  53.2181 347.7824 0001497  53.7272 247.5423 15.08828591  1306,6917.915,95.438,540.816,538.745,0.0
51855.0,STARLINK-3545,PAYLOAD,2022-09-10 22:00:00,15.08866498,0.0001412,53.2182,346.2851,52.346,260.4956,-0.0046571,-0.00073701,0.0,0 STARLINK-3545,1 51855U 22022D   22253.91667824 -.00073701  00000-0 -46571-2 0  9994,2 51855  53.2182 346.2851 0001412  52.3460 260.4956 15.08866498  1305,6917.799,95.436,540.641,538.688,0.0
51855.0,STARLINK-3545,PAYLOAD,2022-09-11 06:00:00,15.08815179,0.0001436,53.2182,344.7876,61.9189,262.5242,0.0023569,0.00037396,0.0,0 STARLINK-3545,1 51855U 22022D   22254.25001157  .00037396  00000-0  23569-2 0  9993,2 51855  53.2182 344.7876 0001436  61.9189 262.5242 15.08815179 30410,6917.956,95.439,540.815,538.828,0.0
51855.0,STARLINK-3545,PAYLOAD,2022-09-11 14:00:01,15.0883103,0.0001645,53.2184,343.2937,54.2834,281.7733,0.001048,0.00016426,0.0,0 STARLINK-3545,1 51855U 22022D   22254.58334491  .00016426  00000-0  10480-2 0  9998,2 51855  53.2184 343.2937 0001645  54.2834 281.7733 15.08831030  1306,6917.908,95.438,540.911,538.635,0.0
51855.0,STARLINK-3545,PAYLOAD,2022-09-11 22:00:00,15.08860205,0.0001599,53.2184,341.7965,55.1655,292.4795,-0.0033976999999999,-0.00053987,0.0,0 STARLINK-3545,1 51855U 22022D   22254.91667824 -.00053987  00000-0 -33977-2 0  9995,2 51855  53.2184 341.7965 0001599  55.1655 292.4795 15.08860205  1302,6917.819,95.436,540.79,538.577,0.0
51855.0,STARLINK-3545,PAYLOAD,2022-09-12 06:00:00,15.08829661,0.0001595999999999,53.2187,340.2994,62.2909,296.9436,0.0020846,0.00033035,0.0,0 STARLINK-3545,1 51855U 22022D   22255.25001157  .00033035  00000-0  20846-2 0  9995,2 51855  53.2187 340.2994 0001596  62.2909 296.9436 15.08829661 30561,6917.9119999999975,95.438,540.881,538.673,0.0
51855.0,STARLINK-3545,PAYLOAD,2022-09-12 14:00:01,15.088461,0.0001720999999999,53.2186,338.8049,54.0661,316.7655,-0.0013966,-0.0002245,0.0,0 STARLINK-3545,1 51855U 22022D   22255.58334491 -.00022450  00000-0 -13966-2 0  9997,2 51855  53.2186 338.8049 0001721  54.0661 316.7655 15.08846100  1309,6917.861999999999,95.437,540.9169999999998,538.536,0.0
51855.0,STARLINK-3545,PAYLOAD,2022-09-12 22:00:00,15.08849022,0.000159,53.2184,337.3074,54.3237,328.1064,-0.00089503,-0.00014508,0.0,0 STARLINK-3545,1 51855U 22022D   22255.91667824 -.00014508  00000-0 -89503-3 0  9999,2 51855  53.2184 337.3074 0001590  54.3237 328.1064 15.08849022  1302,6917.853,95.437,540.818,538.618,0.0
51855.0,STARLINK-3545,PAYLOAD,2022-09-13 14:00:01,15.08833156,0.0001764,53.2184,334.3158,53.4135,352.2178,0.0002334,3.428e-05,0.0,0 STARLINK-3545,1 51855U 22022D   22256.58334491  .00003428  00000-0  23340-3 0  9998,2 51855  53.2184 334.3158 0001764  53.4135 352.2178 15.08833156  1307,6917.901,95.438,540.987,538.5459999999998,0.0
51855.0,STARLINK-3545,PAYLOAD,2022-09-13 22:00:00,15.08829583,0.000159,53.2184,332.8178,55.2209,1.9916,-0.0011700999999999,-0.00018857,0.0,0 STARLINK-3545,1 51855U 22022D   22256.91667824 -.00018857  00000-0 -11701-2 0  9995,2 51855  53.2184 332.8178 0001590  55.2209   1.9916 15.08829583  1308,6917.9119999999975,95.438,540.877,538.677,0.0
51855.0,STARLINK-3545,PAYLOAD,2022-09-14 06:00:00,15.08829898,0.0001519,53.2184,331.3216,60.2744,8.503,0.00090557,0.0001415,0.0,0 STARLINK-3545,1 51855U 22022D   22257.25001157  .00014150  00000-0  90557-3 0  9991,2 51855  53.2184 331.3216 0001519  60.2744   8.5030 15.08829898 30879,6917.911,95.438,540.827,538.725,0.0
51855.0,STARLINK-3545,PAYLOAD,2022-09-14 14:00:01,15.08827305,0.0001641999999999,53.2182,329.8269,52.0446,28.3244,0.0012869,0.00020245,0.0,0 STARLINK-3545,1 51855U 22022D   22257.58334491  .00020245  00000-0  12869-2 0  9998,2 51855  53.2182 329.8269 0001642  52.0446  28.3244 15.08827305  1306,6917.919,95.438,540.92,538.648,0.0
51855.0,STARLINK-3545,PAYLOAD,2022-09-14 22:00:00,15.08840574,0.0001473,53.2179,328.3291,54.2346,37.7263,-0.0017952,-0.00028745,0.0,0 STARLINK-3545,1 51855U 22022D   22257.91667824 -.00028745  00000-0 -17952-2 0  9997,2 51855  53.2179 328.3291 0001473  54.2346  37.7263 15.08840574  1304,6917.879,95.438,540.763,538.725,0.0
51855.0,STARLINK-3545,PAYLOAD,2022-09-15 06:00:00,15.08834741,0.0001651,53.2179,326.8325,62.9973,40.5502,0.00039337,5.977e-05,0.0,0 STARLINK-3545,1 51855U 22022D   22258.25001157  .00005977  00000-0  39337-3 0  9998,2 51855  53.2179 326.8325 0001651  62.9973  40.5502 15.08834741 31024,6917.896,95.438,540.904,538.619,0.0
51855.0,STARLINK-3545,PAYLOAD,2022-09-15 14:00:01,15.08820341,0.0001774999999999,53.2177,325.3377,55.5609,59.5833,0.0027767,0.00044157,0.0,0 STARLINK-3545,1 51855U 22022D   22258.58334491  .00044157  00000-0  27767-2 0  9990,2 51855  53.2177 325.3377 0001775  55.5609  59.5833 15.08820341  1300,6917.94,95.439,541.033,538.578,0.0
